0 MIDAS 3
1 00163U 61018A   13282.50627534  .00000001  00000-0  00000+0 0  5169
2 00163 091.1663 358.5498 0101010 199.0794 249.3744 08.91832582701166
0 MIDAS 3
1 00163U 61018A   13286.67864861  .00000001  00000-0  00000+0 0  5178
2 00163 091.1657 358.7358 0101072 194.5531 325.1320 08.91832674701539
0 MIDAS 3
1 00163U 61018A   13291.14346278  .00000001  00000-0  00000+0 0  5184
2 00163 091.1649 358.9350 0101126 189.6851 259.8238 08.91832663701937
0 MIDAS 3
1 00163U 61018A   13295.16058435  .00000001  00000-0  00000+0 0  5196
2 00163 091.1640 359.1140 0101164 185.3066 197.1575 08.91832606702296
